
# Worst residual: 62.64 km
# MJD 60029.000000 (2023 Mar 26  0:00)
A10TKof = A10SMu1 = A10TQzV
1 79971U 23999ZZV 23085.49919926  .00000000  00000-0  00000-0 0 19083
2 79971 009.2450 248.0944 6911505 111.6047 249.2982 00.84389777    02

# Worst residual: 47.89 km
# MJD 60030.000000 (2023 Mar 27  0:00)
A10TKof = A10SMu1 = A10TQzV
1 79971U 23999ZZV 23086.49919926  .00000000  00000-0  00000-0 0 19084
2 79971 009.2596 247.7842 6900341 112.4735 192.8854 00.84336566    04

# Worst residual: 83.99 km
# MJD 60031.000000 (2023 Mar 28  0:00)
A10TKof = A10SMu1 = A10TQzV
1 79971U 23999ZZV 23087.49919926  .00000000  00000-0  00000-0 0 19085
2 79971 009.2750 247.5060 6902500 113.2915 136.5053 00.84444732    05

# Worst residual: 116.45 km
# MJD 60032.000000 (2023 Mar 29  0:00)
A10TKof = A10SMu1 = A10TQzV
1 79971U 23999ZZV 23088.49919926  .00000000  00000-0  00000-0 0 19086
2 79971 009.2902 247.2721 6900594 113.9721 080.1644 00.84648180    01

# Worst residual: 80.07 km
# MJD 60033.000000 (2023 Mar 30  0:00)
A10TKof = A10SMu1 = A10TQzV
1 79971U 23999ZZV 23089.49919926  .00000000  00000-0  00000-0 0 19087
2 79971 009.3048 247.0156 6889670 114.7362 023.5669 00.84784925    00

# Worst residual: 116.00 km
# MJD 60034.000000 (2023 Mar 31  0:00)
A10TKof = A10SMu1 = A10TQzV
1 79971U 23999ZZV 23090.49919926  .00000000  00000-0  00000-0 0 19089
2 79971 009.3139 246.7430 6885396 115.5371 326.8813 00.84649501    02

# Worst residual: 98.24 km
# MJD 60035.000000 (2023 Apr  1  0:00)
A10TKof = A10SMu1 = A10TQzV
1 79971U 23999ZZV 23091.49919926  .00000000  00000-0  00000-0 0 19080
2 79971 009.3208 246.5908 6874522 116.1366 270.4449 00.84443832    05

# Worst residual: 38.54 km
# MJD 60036.000000 (2023 Apr  2  0:00)
A10TKof = A10SMu1 = A10TQzV
1 79971U 23999ZZV 23092.49919926  .00000000  00000-0  00000-0 0 19081
2 79971 009.3267 246.3956 6857415 116.8365 214.0190 00.84319971    02

# Worst residual: 47.73 km
# MJD 60037.000000 (2023 Apr  3  0:00)
A10TKof = A10SMu1 = A10TQzV
1 79971U 23999ZZV 23093.49919926  .00000000  00000-0  00000-0 0 19082
2 79971 009.3366 246.2010 6851889 117.5864 157.5306 00.84331216    09

# Worst residual: 118.21 km
# MJD 60038.000000 (2023 Apr  4  0:00)
A10TKof = A10SMu1 = A10TQzV
1 79971U 23999ZZV 23094.49919926  .00000000  00000-0  00000-0 0 19083
2 79971 009.3388 246.0887 6855883 118.1373 101.0948 00.84522331    09

# Worst residual: 105.65 km
# MJD 60039.000000 (2023 Apr  5  0:00)
A10TKof = A10SMu1 = A10TQzV
1 79971U 23999ZZV 23095.49919926  .00000000  00000-0  00000-0 0 19084
2 79971 009.3477 245.9598 6844350 118.7370 044.3752 00.84676881    07

# Worst residual: 120.63 km
# MJD 60040.000000 (2023 Apr  6  0:00)
A10TKof = A10SMu1 = A10TQzV
1 79971U 23999ZZV 23096.49919926  .00000000  00000-0  00000-0 0 19085
2 79971 009.3504 245.8525 6834251 119.3845 347.3514 00.84616696    00

# Worst residual: 119.95 km
# MJD 60041.000000 (2023 Apr  7  0:00)
A10TKof = A10SMu1 = A10TQzV
1 79971U 23999ZZV 23097.49919926  .00000000  00000-0  00000-0 0 19086
2 79971 009.3480 245.8121 6824701 119.8914 290.4863 00.84391822    02

# Worst residual: 33.17 km
# MJD 60042.000000 (2023 Apr  8  0:00)
A10TKof = A10SMu1 = A10TQzV
1 79971U 23999ZZV 23098.49919926  .00000000  00000-0  00000-0 0 19087
2 79971 009.3462 245.7543 6802530 120.4204 233.6837 00.84215348    03

# Worst residual: 36.89 km
# MJD 60043.000000 (2023 Apr  9  0:00)
A10TKof = A10SMu1 = A10TQzV
1 79971U 23999ZZV 23099.49919926  .00000000  00000-0  00000-0 0 19088
2 79971 009.3424 245.7191 6792050 121.0001 176.7968 00.84201986    02

# Worst residual: 91.37 km
# MJD 60044.000000 (2023 Apr 10  0:00)
A10TKof = A10SMu1 = A10TQzV
1 79971U 23999ZZV 23100.49919926  .00000000  00000-0  00000-0 0 19081
2 79971 009.3356 245.7001 6793554 121.4876 119.8874 00.84330697    06

# Worst residual: 108.54 km
# MJD 60045.000000 (2023 Apr 11  0:00)
A10TKof = A10SMu1 = A10TQzV
1 79971U 23999ZZV 23101.49919926  .00000000  00000-0  00000-0 0 19082
2 79971 009.3291 245.6825 6782018 121.9346 062.8337 00.84504893    09

# Worst residual: 105.39 km
# MJD 60046.000000 (2023 Apr 12  0:00)
A10TKof = A10SMu1 = A10TQzV
1 79971U 23999ZZV 23102.49919926  .00000000  00000-0  00000-0 0 19083
2 79971 009.3207 245.6886 6767591 122.4571 005.3826 00.84528986    02

# Worst residual: 121.98 km
# MJD 60047.000000 (2023 Apr 13  0:00)
A10TKof = A10SMu1 = A10TQzV
1 79971U 23999ZZV 23103.49919926  .00000000  00000-0  00000-0 0 19084
2 79971 009.3145 245.7063 6758662 122.9297 307.9480 00.84316274    02

# Worst residual: 45.08 km
# MJD 60048.000000 (2023 Apr 14  0:00)
A10TKof = A10SMu1 = A10TQzV
1 79971U 23999ZZV 23104.49919926  .00000000  00000-0  00000-0 0 19085
2 79971 009.2999 245.7883 6738361 123.3094 250.6521 00.84119643    03

# Worst residual: 39.41 km
# MJD 60049.000000 (2023 Apr 15  0:00)
A10TKof = A10SMu1 = A10TQzV
1 79971U 23999ZZV 23105.49919926  .00000000  00000-0  00000-0 0 19086
2 79971 009.2920 245.8209 6721460 123.8395 193.2636 00.84052048    05

# Worst residual: 103.17 km
# MJD 60050.000000 (2023 Apr 16  0:00)
A10TKof = A10SMu1 = A10TQzV
1 79971U 23999ZZV 23106.49919926  .00000000  00000-0  00000-0 0 19087
2 79971 009.2874 245.8279 6718784 124.3685 135.8348 00.84156307    08

# Worst residual: 100.38 km
# MJD 60051.000000 (2023 Apr 17  0:00)
A10TKof = A10SMu1 = A10TQzV
1 79971U 23999ZZV 23107.49919926  .00000000  00000-0  00000-0 0 19088
2 79971 009.2603 245.9608 6709783 124.6740 078.3709 00.84348917    01

# Worst residual: 85.67 km
# MJD 60052.000000 (2023 Apr 18  0:00)
A10TKof = A10SMu1 = A10TQzV
1 79971U 23999ZZV 23108.49919926  .00000000  00000-0  00000-0 0 19089
2 79971 009.2388 246.0659 6691468 125.1019 020.5194 00.84441265    01

# Worst residual: 121.67 km
# MJD 60053.000000 (2023 Apr 19  0:00)
A10TKof = A10SMu1 = A10TQzV
1 79971U 23999ZZV 23109.49919926  .00000000  00000-0  00000-0 0 19080
2 79971 009.2038 246.2777 6679740 125.4480 322.5929 00.84276931    07

# Worst residual: 89.58 km
# MJD 60054.000000 (2023 Apr 20  0:00)
A10TKof = A10SMu1 = A10TQzV
1 79971U 23999ZZV 23110.49919926  .00000000  00000-0  00000-0 0 19082
2 79971 009.1911 246.4253 6658934 125.7738 264.9565 00.84068250    06

# Worst residual: 40.64 km
# MJD 60055.000000 (2023 Apr 21  0:00)
A10TKof = A10SMu1 = A10TQzV
1 79971U 23999ZZV 23111.49919926  .00000000  00000-0  00000-0 0 19083
2 79971 009.1690 246.5845 6635973 126.1735 207.3458 00.83988540    02

# Worst residual: 72.22 km
# MJD 60056.000000 (2023 Apr 22  0:00)
A10TKof = A10SMu1 = A10TQzV
1 79971U 23999ZZV 23112.49919926  .00000000  00000-0  00000-0 0 19084
2 79971 009.1424 246.7492 6626799 126.5846 149.7279 00.84079571    06

# Worst residual: 103.55 km
# MJD 60057.000000 (2023 Apr 23  0:00)
A10TKof = A10SMu1 = A10TQzV
1 79971U 23999ZZV 23113.49919926  .00000000  00000-0  00000-0 0 19085
2 79971 009.1090 246.9475 6620133 126.8336 092.2076 00.84308894    01
